[{"OBJECT_NAME":"STARLINK-4325","OBJECT_ID":"2022-077AB","EPOCH":"2026-03-09T23:12:40.252320","MEAN_MOTION":15.05644956,"ECCENTRICITY":0.00014527,"INCLINATION":97.6025,"RA_OF_ASC_NODE":251.5,"ARG_OF_PERICENTER":87.0821,"MEAN_ANOMALY":273.0572,"EPHEMERIS_TYPE":0,"CLASSIFICATION_TYPE":"U","NORAD_CAT_ID":53068,"ELEMENT_SET_NO":999,"REV_AT_EPOCH":20102,"BSTAR":9.019798e-6,"MEAN_MOTION_DOT":6.9e-7,"MEAN_MOTION_DDOT":0},{"OBJECT_NAME":"FENGYUN 1C DEB","OBJECT_ID":"1999-025DH","EPOCH":"2026-03-09T22:27:36.392832","MEAN_MOTION":14.64646374,"ECCENTRICITY":0.01796987,"INCLINATION":98.0552,"RA_OF_ASC_NODE":80.5984,"ARG_OF_PERICENTER":220.1282,"MEAN_ANOMALY":138.6535,"EPHEMERIS_TYPE":0,"CLASSIFICATION_TYPE":"U","NORAD_CAT_ID":29815,"ELEMENT_SET_NO":999,"REV_AT_EPOCH":1127,"BSTAR":0.000529441,"MEAN_MOTION_DOT":3.51e-5,"MEAN_MOTION_DDOT":0}]
